{
"type": "FeatureCollection",
"name": "meuse-rivers",
"crs": { "type": "name", "properties": { "name": "urn:ogc:def:crs:OGC:1.3:CRS84" } },
"features": [
{ "type": "Feature", "properties": { "name": "Maas" }, "geometry": { "type": "LineString", "coordinates": [ [ 5.751271781686258, 50.946613852032151 ], [ 5.751953125, 50.947528387494117 ], [ 5.763427734375, 50.95966217655662 ], [ 5.753808593750023, 50.96332428593162 ], [ 5.744042968750023, 50.963495184369116 ], [ 5.721826171875023, 50.95966217655662 ], [ 5.761132812500023, 50.99945709843162 ], [ 5.762509520619171, 51.001562156717782 ] ] } }
]
}
